NORAD_CAT_ID,OBJECT_NAME,OBJECT_TYPE,EPOCH,MEAN_MOTION,ECCENTRICITY,INCLINATION,RA_OF_ASC_NODE,ARG_OF_PERICENTER,MEAN_ANOMALY,BSTAR,MEAN_MOTION_DOT,MEAN_MOTION_DDOT,TLE_LINE0,TLE_LINE1,TLE_LINE2,SEMIMAJOR_AXIS,PERIOD,APOGEE,PERIGEE,DECAYED
55741.0,STARLINK-5592,PAYLOAD,2024-02-23 19:47:10,14.98326971,0.0002806,70.0012,322.6412,265.4706,94.6133,5.3927e-05,5.5e-06,0.0,0 STARLINK-5592,1 55741U 23028A   24054.82442226  .00000550  00000-0  53927-4 0  9992,2 55741  70.0012 322.6412 0002806 265.4706  94.6133 14.98326971 54454,6950.202,96.107,574.017,570.117,0.0
55741.0,STARLINK-5592,PAYLOAD,2024-02-23 21:23:18,14.98326698,0.000281,70.0011,322.4729,265.492,94.5918,4.8857e-05,4.9e-06,0.0,0 STARLINK-5592,1 55741U 23028A   24054.89118249  .00000490  00000-0  48857-4 0  9993,2 55741  70.0011 322.4729 0002810 265.4920  94.5918 14.98326698 54664,6950.203,96.107,574.021,570.115,0.0
55741.0,STARLINK-5592,PAYLOAD,2024-02-24 03:47:50,14.98329181,0.0002818,70.0012,321.8004,267.5708,92.5128,6.7471e-05,7.12e-06,0.0,0 STARLINK-5592,1 55741U 23028A   24055.15822098  .00000712  00000-0  67471-4 0  9997,2 55741  70.0012 321.8004 0002818 267.5708  92.5128 14.98329181 54705,6950.195,96.107,574.019,570.102,0.0
55741.0,STARLINK-5592,PAYLOAD,2024-02-25 03:49:50,14.98335251,0.0002788,70.0012,319.2757,268.222,91.862,6.3779e-05,6.68e-06,0.0,0 STARLINK-5592,1 55741U 23028A   24056.15961679  .00000668  00000-0  63779-4 0  9994,2 55741  70.0012 319.2757 0002788 268.2220  91.8620 14.98335251 54652,6950.177,96.107,573.979,570.104,0.0
55741.0,STARLINK-5592,PAYLOAD,2024-02-25 10:14:23,14.98332017,0.0002768,70.0012,318.6025,268.6313,91.4529,4.2144e-05,4.1e-06,0.0,0 STARLINK-5592,1 55741U 23028A   24056.42665884  .00000410  00000-0  42144-4 0  9991,2 55741  70.0012 318.6025 0002768 268.6313  91.4529 14.98332017 54895,6950.187,96.107,573.975,570.128,0.0
55741.0,STARLINK-5592,PAYLOAD,2024-02-25 19:51:11,14.98327629,0.0002747,70.0011,317.5927,268.5101,91.5744,3.5785e-05,3.34e-06,0.0,0 STARLINK-5592,1 55741U 23028A   24056.82722204  .00000334  00000-0  35785-4 0  9993,2 55741  70.0011 317.5927 0002747 268.5101  91.5744 14.98327629 54752,6950.2,96.107,573.974,570.156,0.0
55741.0,STARLINK-5592,PAYLOAD,2024-02-25 23:03:28,14.98327573,0.0002753,70.0011,317.2561,268.5365,91.5479,3.3965e-05,3.12e-06,0.0,0 STARLINK-5592,1 55741U 23028A   24056.96074240  .00000312  00000-0  33965-4 0  9992,2 55741  70.0011 317.2561 0002753 268.5365  91.5479 14.98327573 54979,6950.2,96.107,573.979,570.152,0.0
55741.0,STARLINK-5592,PAYLOAD,2024-02-26 02:15:44,14.98329996,0.0002701,70.0012,316.9204,264.9597,95.1254,6.7428e-05,7.12e-06,0.0,0 STARLINK-5592,1 55741U 23028A   24057.09425989  .00000712  00000-0  67428-4 0  9992,2 55741  70.0012 316.9204 0002701 264.9597  95.1254 14.98329996 54994,6950.193,96.107,573.935,570.181,0.0
55741.0,STARLINK-5592,PAYLOAD,2024-02-26 19:53:12,14.98329329,0.0002574,70.0014,315.0688,258.6558,101.4312,5.242e-05,5.33e-06,0.0,0 STARLINK-5592,1 55741U 23028A   24057.82862010  .00000533  00000-0  52420-4 0  9990,2 55741  70.0014 315.0688 0002574 258.6558 101.4312 14.98329329 54904,6950.195,96.107,573.849,570.271,0.0
55741.0,STARLINK-5592,PAYLOAD,2024-02-26 21:29:20,14.98331047,0.000283,70.0012,314.9002,257.5375,102.5467,1.5851e-05,9.6e-07,0.0,0 STARLINK-5592,1 55741U 23028A   24057.89537963  .00000096  00000-0  15851-4 0  9994,2 55741  70.0012 314.9002 0002830 257.5375 102.5467 14.98331047 55117,6950.19,96.107,574.022,570.088,0.0
55741.0,STARLINK-5592,PAYLOAD,2024-02-27 10:18:25,14.98332205,0.0002645,70.0005,313.5524,270.8179,89.2677,5.8981e-05,6.11e-06,0.0,0 STARLINK-5592,1 55741U 23028A   24058.42945852  .00000611  00000-0  58981-4 0  9998,2 55741  70.0005 313.5524 0002645 270.8179  89.2677 14.98332205 55196,6950.186,96.107,573.889,570.213,0.0
55741.0,STARLINK-5592,PAYLOAD,2024-02-27 19:55:13,14.98331463,0.0002742,70.0009,312.5439,266.8524,93.2321,7.3338e-05,7.82e-06,0.0,0 STARLINK-5592,1 55741U 23028A   24058.83001793  .00000782  00000-0  73338-4 0  9992,2 55741  70.0009 312.5439 0002742 266.8524  93.2321 14.98331463 55052,6950.188,96.107,573.959,570.148,0.0
55741.0,STARLINK-5592,PAYLOAD,2024-02-27 23:07:29,14.98334586,0.0002718,70.0002,312.206,265.7293,94.3555,8.3353e-05,9.02e-06,0.0,0 STARLINK-5592,1 55741U 23028A   24058.96353542  .00000902  00000-0  83353-4 0  9990,2 55741  70.0002 312.2060 0002718 265.7293  94.3555 14.98334586 55270,6950.179,96.107,573.933,570.155,0.0
55741.0,STARLINK-5592,PAYLOAD,2024-02-28 10:20:26,14.98328824,0.0002564,70.0011,311.029,267.834,92.2525,3.4577e-05,3.2e-06,0.0,0 STARLINK-5592,1 55741U 23028A   24059.43086032  .00000320  00000-0  34577-4 0  9998,2 55741  70.0011 311.0290 0002564 267.8340  92.2525 14.98328824 55347,6950.197,96.107,573.844,570.279,0.0
55741.0,STARLINK-5592,PAYLOAD,2024-02-28 19:57:14,14.98324585,0.0002658,70.0006,310.0172,265.6928,94.3928,1.2379e-05,5.5e-07,0.0,0 STARLINK-5592,1 55741U 23028A   24059.83142338  .00000055  00000-0  12379-4 0  9995,2 55741  70.0006 310.0172 0002658 265.6928  94.3928 14.98324585 55206,6950.21,96.107,573.922,570.227,0.0
55741.0,STARLINK-5592,PAYLOAD,2024-02-28 21:33:23,14.98323993,0.0002632,70.0006,309.8487,265.3238,94.7621,1.4624e-05,8.2e-07,0.0,0 STARLINK-5592,1 55741U 23028A   24059.89818392  .00000082  00000-0  14624-4 0  9996,2 55741  70.0006 309.8487 0002632 265.3238  94.7621 14.98323993 55413,6950.211,96.107,573.906,570.247,0.0
55741.0,STARLINK-5592,PAYLOAD,2024-02-29 15:10:51,14.9834454,0.0002866,70.0001,307.9973,270.6381,89.445,-0.00017,-2.122e-05,0.0,0 STARLINK-5592,1 55741U 23028A   24060.63253643 -.00002122  00000-0 -17000-3 0  9991,2 55741  70.0001 307.9973 0002866 270.6381  89.4450 14.98344540 55528,6950.148,96.106,574.005,570.021,0.0
55741.0,STARLINK-5592,PAYLOAD,2024-02-29 19:59:15,14.98336931,0.0002853,70.0001,307.4925,269.9037,90.1795,7.3051e-05,7.79e-06,0.0,0 STARLINK-5592,1 55741U 23028A   24060.83281412  .00000779  00000-0  73051-4 0  9991,2 55741  70.0001 307.4925 0002853 269.9037  90.1795 14.98336931 55352,6950.171,96.107,574.019,570.054,0.0
55741.0,STARLINK-5592,PAYLOAD,2024-02-29 21:35:23,14.98336207,0.0002862,70.0004,307.3245,270.4832,89.5999,7.678e-05,8.23e-06,0.0,0 STARLINK-5592,1 55741U 23028A   24060.89957439  .00000823  00000-0  76780-4 0  9998,2 55741  70.0004 307.3245 0002862 270.4832  89.5999 14.98336207 55566,6950.174,96.107,574.028,570.05,0.0
55741.0,STARLINK-5592,PAYLOAD,2024-03-01 02:23:47,14.98338682,0.0002887,70.0001,306.8194,270.4174,89.6654,5.5159e-05,5.65e-06,0.0,0 STARLINK-5592,1 55741U 23028A   24061.09985247  .00000565  00000-0  55159-4 0  9999,2 55741  70.0001 306.8194 0002887 270.4174  89.6654 14.98338682 55597,6950.166,96.106,574.038,570.025,0.0
55741.0,STARLINK-5592,PAYLOAD,2024-03-01 20:01:16,14.98330033,0.0002914,70.0002,304.968,270.6403,89.4422,0.00010222,1.127e-05,0.0,0 STARLINK-5592,1 55741U 23028A   24061.83421540  .00001127  00000-0  10222-3 0  9998,2 55741  70.0002 304.9680 0002914 270.6403  89.4422 14.98330033 55509,6950.193,96.107,574.083,570.033,0.0
55741.0,STARLINK-5592,PAYLOAD,2024-03-01 21:37:24,14.98330371,0.0002912,70.0001,304.7997,270.5508,89.5317,0.00010389,1.147e-05,0.0,0 STARLINK-5592,1 55741U 23028A   24061.90097520  .00001147  00000-0  10389-3 0  9999,2 55741  70.0001 304.7997 0002912 270.5508  89.5317 14.98330371 55712,6950.192,96.107,574.081,570.033,0.0
55741.0,STARLINK-5592,PAYLOAD,2024-03-02 02:25:48,14.98331637,0.000287,70.0001,304.2945,269.835,90.248,0.00011901,1.327e-05,0.0,0 STARLINK-5592,1 55741U 23028A   24062.10125390  .00001327  00000-0  11901-3 0  9990,2 55741  70.0001 304.2945 0002870 269.8350  90.2480 14.98331637 55748,6950.188,96.107,574.048,570.058,0.0
55741.0,STARLINK-5592,PAYLOAD,2024-03-02 20:03:17,14.98295286,0.0002989,70.0002,302.4444,261.7446,98.3374,0.00065962,7.779e-05,0.0,0 STARLINK-5592,1 55741U 23028A   24062.83562426  .00007779  00000-0  65962-3 0  9998,2 55741  70.0002 302.4444 0002989 261.7446  98.3374 14.98295286 55651,6950.3,96.109,574.243,570.088,0.0
55741.0,STARLINK-5592,PAYLOAD,2024-03-02 21:39:25,14.98328532,0.000295,70.0001,302.2759,263.3553,96.727,8.2988e-05,8.97e-06,0.0,0 STARLINK-5592,1 55741U 23028A   24062.90237504  .00000897  00000-0  82988-4 0  9994,2 55741  70.0001 302.2759 0002950 263.3553  96.7270 14.98328532 55863,6950.197,96.107,574.113,570.012,0.0
55741.0,STARLINK-5592,PAYLOAD,2024-03-03 02:27:49,14.98335191,0.0002679,70.0001,301.7709,253.8513,106.2351,-3.4134e-05,-5e-06,0.0,0 STARLINK-5592,1 55741U 23028A   24063.10265291 -.00000500  00000-0 -34134-4 0  9994,2 55741  70.0001 301.7709 0002679 253.8513 106.2351 14.98335191 55697,6950.177,96.107,573.904,570.18,0.0
55741.0,STARLINK-5592,PAYLOAD,2024-03-03 08:52:21,14.98333001,0.0002874,69.9997,301.0961,257.4502,102.6336,-1.0571e-05,-2.19e-06,0.0,0 STARLINK-5592,1 55741U 23028A   24063.36969349 -.00000219  00000-0 -10571-4 0  9993,2 55741  69.9997 301.0961 0002874 257.4502 102.6336 14.98333001 55934,6950.184,96.107,574.046,570.051,0.0
55741.0,STARLINK-5592,PAYLOAD,2024-03-03 21:41:25,14.98333399,0.0002782,69.9994,299.7491,266.335,93.7491,4.0171e-05,3.86e-06,0.0,0 STARLINK-5592,1 55741U 23028A   24063.90377187  .00000386  00000-0  40171-4 0  9998,2 55741  69.9994 299.7491 0002782 266.3350  93.7491 14.98333399 56012,6950.182,96.107,573.981,570.114,0.0
55741.0,STARLINK-5592,PAYLOAD,2024-03-04 08:54:21,14.98338591,0.0002792,69.9991,298.5718,264.051,96.0331,8.4312e-05,9.13e-06,0.0,0 STARLINK-5592,1 55741U 23028A   24064.37108494  .00000913  00000-0  84312-4 0  9994,2 55741  69.9991 298.5718 0002792 264.0510  96.0331 14.98338591 55884,6950.166,96.106,573.972,570.091,0.0
55741.0,STARLINK-5592,PAYLOAD,2024-03-04 21:43:26,14.98328562,0.0002796,69.999,297.2243,258.0748,102.0098,8.643e-05,9.38e-06,0.0,0 STARLINK-5592,1 55741U 23028A   24064.90516909  .00000938  00000-0  86430-4 0  9997,2 55741  69.9990 297.2243 0002796 258.0748 102.0098 14.98328562 56169,6950.197,96.107,574.006,570.119,0.0
